COSMOS 2361 [-]         
1 25590U 98076A   23031.53688111  .00000082  00000+0  73161-4 0  9994
2 25590  82.9327  37.5569 0030237 295.6968 183.0077 13.73042854207539
COSMOS 2378 [-]         
1 26818U 01023A   23031.50150941  .00000057  00000+0  45100-4 0  9990
2 26818  82.9253  55.2100 0031788 238.7189 232.1205 13.73986643 85552
COSMOS 2389 [-]         
1 27436U 02026A   23031.36451839  .00000076  00000+0  62990-4 0  9992
2 27436  82.9525   1.3463 0047756  99.4607  52.3022 13.74995037 37682
COSMOS 2398 [-]         
1 27818U 03023A   23031.23775677  .00000051  00000+0  39164-4 0  9999
2 27818  82.9513 323.7785 0032149 137.3925  32.3889 13.72229614984629
COSMOS 2407 [+]         
1 28380U 04028A   23031.11715389  .00000066  00000+0  51246-4 0  9992
2 28380  82.9588 267.8688 0040503 100.4197  51.6365 13.76135078930269
COSMOS 2414 [+]         
1 28521U 05002A   23031.53227304  .00000079  00000+0  53406-4 0  9997
2 28521  82.9474 255.7851 0039058 243.1946 116.5221 13.87682533912872
COSMOS 2429 [-]         
1 32052U 07038A   23031.50687001  .00000079  00000+0  66407-4 0  9998
2 32052  82.9793  34.2784 0039857  77.9900 282.5719 13.74982371772245
COSMOS 2454 [-]         
1 35635U 09039A   23031.54758733  .00000079  00000+0  51195-4 0  9994
2 35635  82.9537 241.6947 0019125 182.1761 238.0037 13.89711159686182
COSMOS 2463 [+]         
1 36519U 10017A   23031.50104566  .00000050  00000+0  39153-4 0  9998
2 36519  82.9580  75.3141 0035051 311.7445 159.2479 13.71492197638950
